{
  "type": "FeatureCollection",
  "features": [
    {
      "type": "Feature",
      "properties": {
        "norad_id": 28054,
        "name": "DMSP 5D-3 F16 (USA 172)",
        "group": "weather",
        "lat": 39.4674983851026,
        "lon": -162.33712914451974,
        "alt_km": 845.5348943593444,
        "timestamp": "2025-12-18T15:47:10.862211+00:00",
        "meta_object_name": "DMSP 5D-3 F16 (USA 172)",
        "meta_object_id": "2003-048A",
        "meta_epoch": "2025-12-18T06:55:16.108032",
        "meta_mean_motion": 14.14426294,
        "meta_eccentricity": 0.00063323,
        "meta_inclination": 99.0041,
        "meta_ra_of_asc_node": 9.789,
        "meta_arg_of_pericenter": 303.2488,
        "meta_mean_anomaly": 116.7971,
        "meta_ephemeris_type": 0,
        "meta_classification_type": "U",
        "meta_norad_cat_id": 28054,
        "meta_element_set_no": 999,
        "meta_rev_at_epoch": 14391,
        "meta_bstar": 7.9629067e-05,
        "meta_mean_motion_dot": 1.07e-06,
        "meta_mean_motion_ddot": 0,
        "tle_line1": "1 28054U 03048A   25352.28838088  .00000107  00000+0  79629-4 0  9990",
        "tle_line2": "2 28054  99.0041   9.7890 0006332 303.2488 116.7971 14.14426294143916"
      },
      "geometry": {
        "type": "Point",
        "coordinates": [
          -162.33712914451974,
          39.4674983851026
        ]
      }
    },
    {
      "type": "Feature",
      "properties": {
        "norad_id": 28912,
        "name": "METEOSAT-9 (MSG-2)",
        "group": "weather",
        "lat": -6.401146792698219,
        "lon": 10.497315308277978,
        "alt_km": 35792.57573782618,
        "timestamp": "2025-12-18T15:47:10.862261+00:00",
        "meta_object_name": "METEOSAT-9 (MSG-2)",
        "meta_object_id": "2005-049B",
        "meta_epoch": "2025-12-17T18:40:44.289696",
        "meta_mean_motion": 1.00279199,
        "meta_eccentricity": 0.00033756,
        "meta_inclination": 8.9502,
        "meta_ra_of_asc_node": 55.9296,
        "meta_arg_of_pericenter": 190.8164,
        "meta_mean_anomaly": 165.8697,
        "meta_ephemeris_type": 0,
        "meta_classification_type": "U",
        "meta_norad_cat_id": 28912,
        "meta_element_set_no": 999,
        "meta_rev_at_epoch": 517,
        "meta_bstar": 0,
        "meta_mean_motion_dot": 1.4e-06,
        "meta_mean_motion_ddot": 0,
        "tle_line1": "1 28912U 05049B   25351.77829039  .00000140  00000+0  00000+0 0  9994",
        "tle_line2": "2 28912   8.9502  55.9296 0003375 190.8164 165.8697  1.00279199  5174"
      },
      "geometry": {
        "type": "Point",
        "coordinates": [
          10.497315308277978,
          -6.401146792698219
        ]
      }
    },
    {
      "type": "Feature",
      "properties": {
        "norad_id": 29522,
        "name": "DMSP 5D-3 F17 (USA 191)",
        "group": "weather",
        "lat": 81.23711437895261,
        "lon": -95.82209213764251,
        "alt_km": 838.2020278213295,
        "timestamp": "2025-12-18T15:47:10.862295+00:00",
        "meta_object_name": "DMSP 5D-3 F17 (USA 191)",
        "meta_object_id": "2006-050A",
        "meta_epoch": "2025-12-18T06:52:24.364704",
        "meta_mean_motion": 14.14921966,
        "meta_eccentricity": 0.00096155,
        "meta_inclination": 98.739,
        "meta_ra_of_asc_node": 357.5601,
        "meta_arg_of_pericenter": 208.0689,
        "meta_mean_anomaly": 151.9967,
        "meta_ephemeris_type": 0,
        "meta_classification_type": "U",
        "meta_norad_cat_id": 29522,
        "meta_element_set_no": 999,
        "meta_rev_at_epoch": 98683,
        "meta_bstar": 9.5975856e-05,
        "meta_mean_motion_dot": 1.42e-06,
        "meta_mean_motion_ddot": 0,
        "tle_line1": "1 29522U 06050A   25352.28639311  .00000142  00000+0  95976-4 0  9997",
        "tle_line2": "2 29522  98.7390 357.5601 0009615 208.0689 151.9967 14.14921966986834"
      },
      "geometry": {
        "type": "Point",
        "coordinates": [
          -95.82209213764251,
          81.23711437895261
        ]
      }
    },
    {
      "type": "Feature",
      "properties": {
        "norad_id": 32958,
        "name": "FENGYUN 3A",
        "group": "weather",
        "lat": -78.47548838782961,
        "lon": 63.61180358460627,
        "alt_km": 829.4641054532995,
        "timestamp": "2025-12-18T15:47:10.862309+00:00",
        "meta_object_name": "FENGYUN 3A",
        "meta_object_id": "2008-026A",
        "meta_epoch": "2025-12-18T06:05:42.277920",
        "meta_mean_motion": 14.19516409,
        "meta_eccentricity": 0.0007709,
        "meta_inclination": 98.6703,
        "meta_ra_of_asc_node": 291.6647,
        "meta_arg_of_pericenter": 292.8794,
        "meta_mean_anomaly": 67.1568,
        "meta_ephemeris_type": 0,
        "meta_classification_type": "U",
        "meta_norad_cat_id": 32958,
        "meta_element_set_no": 999,
        "meta_rev_at_epoch": 90973,
        "meta_bstar": 5.7682074e-05,
        "meta_mean_motion_dot": 7.8e-07,
        "meta_mean_motion_ddot": 0,
        "tle_line1": "1 32958U 08026A   25352.25396155  .00000078  00000+0  57682-4 0  9992",
        "tle_line2": "2 32958  98.6703 291.6647 0007709 292.8794  67.1568 14.19516409909732"
      },
      "geometry": {
        "type": "Point",
        "coordinates": [
          63.61180358460627,
          -78.47548838782961
        ]
      }
    },
    {
      "type": "Feature",
      "properties": {
        "norad_id": 35491,
        "name": "GOES 14",
        "group": "weather",
        "lat": 0.973620329713212,
        "lon": -149.1866491068461,
        "alt_km": 35833.721852881405,
        "timestamp": "2025-12-18T15:47:10.862324+00:00",
        "meta_object_name": "GOES 14",
        "meta_object_id": "2009-033A",
        "meta_epoch": "2025-12-18T05:56:17.584800",
        "meta_mean_motion": 1.00096755,
        "meta_eccentricity": 5.233e-05,
        "meta_inclination": 1.2169,
        "meta_ra_of_asc_node": 85.3458,
        "meta_arg_of_pericenter": 177.5457,
        "meta_mean_anomaly": 160.0617,
        "meta_ephemeris_type": 0,
        "meta_classification_type": "U",
        "meta_norad_cat_id": 35491,
        "meta_element_set_no": 999,
        "meta_rev_at_epoch": 477,
        "meta_bstar": 0,
        "meta_mean_motion_dot": 1.4e-07,
        "meta_mean_motion_ddot": 0,
        "tle_line1": "1 35491U 09033A   25352.24742575  .00000014  00000+0  00000+0 0  9993",
        "tle_line2": "2 35491   1.2169  85.3458 0000523 177.5457 160.0617  1.00096755  4774"
      },
      "geometry": {
        "type": "Point",
        "coordinates": [
          -149.1866491068461,
          0.973620329713212
        ]
      }
    },
    {
      "type": "Feature",
      "properties": {
        "norad_id": 35951,
        "name": "DMSP 5D-3 F18 (USA 210)",
        "group": "weather",
        "lat": -44.58111496603807,
        "lon": -22.104221256034887,
        "alt_km": 850.0785315895646,
        "timestamp": "2025-12-18T15:47:10.862337+00:00",
        "meta_object_name": "DMSP 5D-3 F18 (USA 210)",
        "meta_object_id": "2009-057A",
        "meta_epoch": "2025-12-18T05:48:56.802240",
        "meta_mean_motion": 14.14772887,
        "meta_eccentricity": 0.00119382,
        "meta_inclination": 98.8839,
        "meta_ra_of_asc_node": 328.6157,
        "meta_arg_of_pericenter": 48.323,
        "meta_mean_anomaly": 311.8963,
        "meta_ephemeris_type": 0,
        "meta_classification_type": "U",
        "meta_norad_cat_id": 35951,
        "meta_element_set_no": 999,
        "meta_rev_at_epoch": 83400,
        "meta_bstar": 0.00014851161,
        "meta_mean_motion_dot": 2.42e-06,
        "meta_mean_motion_ddot": 0,
        "tle_line1": "1 35951U 09057A   25352.24232410  .00000242  00000+0  14851-3 0  9998",
        "tle_line2": "2 35951  98.8839 328.6157 0011938  48.3230 311.8963 14.14772887834009"
      },
      "geometry": {
        "type": "Point",
        "coordinates": [
          -22.104221256034887,
          -44.58111496603807
        ]
      }
    },
    {
      "type": "Feature",
      "properties": {
        "norad_id": 36411,
        "name": "EWS-G2 (GOES 15)",
        "group": "weather",
        "lat": -0.7025511405203271,
        "lon": 25.729459279948394,
        "alt_km": 35799.108544225506,
        "timestamp": "2025-12-18T15:47:10.862351+00:00",
        "meta_object_name": "EWS-G2 (GOES 15)",
        "meta_object_id": "2010-008A",
        "meta_epoch": "2025-12-18T01:36:10.010592",
        "meta_mean_motion": 1.00270611,
        "meta_eccentricity": 0.00054803,
        "meta_inclination": 0.8263,
        "meta_ra_of_asc_node": 86.0885,
        "meta_arg_of_pericenter": 176.6124,
        "meta_mean_anomaly": 269.6494,
        "meta_ephemeris_type": 0,
        "meta_classification_type": "U",
        "meta_norad_cat_id": 36411,
        "meta_element_set_no": 999,
        "meta_rev_at_epoch": 5782,
        "meta_bstar": 0,
        "meta_mean_motion_dot": 6.3e-07,
        "meta_mean_motion_ddot": 0,
        "tle_line1": "1 36411U 10008A   25352.06678253  .00000063  00000+0  00000+0 0  9995",
        "tle_line2": "2 36411   0.8263  86.0885 0005480 176.6124 269.6494  1.00270611 57825"
      },
      "geometry": {
        "type": "Point",
        "coordinates": [
          25.729459279948394,
          -0.7025511405203271
        ]
      }
    }
  ]
}